DMSP 5D-3 F16 (USA 172) 
1 28054U 03048A   26127.97849646  .00000002  00000+0  24549-4 0  9994
2 28054  98.9918 151.5359 0005916 259.2143 122.7214 14.14479110163800
METEOSAT-9 (MSG-2)      
1 28912U 05049B   26127.91110907  .00000133  00000+0  00000+0 0  9991
2 28912   9.2720  54.5554 0001285 357.5349 187.4192  1.00267067  6595
DMSP 5D-3 F17 (USA 191) 
1 29522U 06050A   26128.00553570  .00000053  00000+0  49510-4 0  9995
2 29522  98.7390 135.3968 0010326 164.1318 196.0181 14.14985860  6748
FENGYUN 3A              
1 32958U 08026A   26127.80107081  .00000085  00000+0  60749-4 0  9998
2 32958  98.6865  69.3946 0007656 241.4236 118.6170 14.19562599929672
GOES 14                 
1 35491U 09033A   26127.86335557 -.00000094  00000+0  00000+0 0  9999
2 35491   1.5860  83.5031 0001986 333.1688 284.2892  1.00118273  6183
DMSP 5D-3 F18 (USA 210) 
1 35951U 09057A   26127.90338038  .00000246  00000+0  15065-3 0  9997
2 35951  98.9024 108.7652 0011338  11.7762 348.3674 14.14873456853897
EWS-G2 (GOES 15)        
1 36411U 10008A   26127.91466243  .00000030  00000+0  00000+0 0  9998
2 36411   1.1693  83.5655 0004687  26.1407 148.6364  1.00273914 59232
COMS 1                  
1 36744U 10032A   26127.73100340 -.00000335  00000+0  00000+0 0  9996
2 36744   4.7021  75.8877 0001151 343.7575 197.2314  1.00270422 50688
FENGYUN 3B              
1 37214U 10059A   26128.00481781 -.00000061  00000+0 -79647-5 0  9996
2 37214  98.9646 173.8422 0021160 302.3853 173.7328 14.14831193801748
SUOMI NPP               
1 37849U 11061A   26127.88141375  .00000082  00000+0  60005-4 0  9999
2 37849  98.7936  69.0376 0002865  83.1014 277.0488 14.19508694752720
METEOSAT-10 (MSG-3)     
1 38552U 12035B   26127.61688861  .00000002  00000+0  00000+0 0  9996
2 38552   4.5762  61.1882 0002058 325.9989  60.4375  1.00270547 50450
METOP-B                 
1 38771U 12049A   26126.86974037  .00000093  00000+0  62517-4 0  9999
2 38771  98.6534 179.1868 0003578 103.7812 256.3764 14.21436428707392
INSAT-3D                
1 39216U 13038B   26127.92774916 -.00000330  00000+0  00000+0 0  9994
2 39216   1.8219  83.0251 0001190 294.6575 311.6031  1.00272073 46672
FENGYUN 3C              
1 39260U 13052A   26127.97175344  .00000093  00000+0  68278-4 0  9995
2 39260  98.4966 103.6994 0015423 135.6963 224.5449 14.15745596652879
METEOR-M 2              
1 40069U 14037A   26127.95270543 -.00000230  00000+0 -86159-4 0  9996
2 40069  98.5100 105.1226 0006237 143.2056 216.9551 14.21449657613608
HIMAWARI-8              
1 40267U 14060A   26127.92991583 -.00000268  00000+0  00000+0 0  9999
2 40267   0.0332  86.7678 0001023 342.4813 271.9734  1.00271922 42353
FENGYUN 2G              
1 40367U 14090A   26127.85052883 -.00000293  00000+0  00000+0 0  9994
2 40367   5.5375  73.2904 0002586 135.2104  63.1397  1.00268724 41597
METEOSAT-11 (MSG-4)     
1 40732U 15034A   26127.90400238  .00000070  00000+0  00000+0 0  9998
2 40732   3.1019  71.3203 0001582 348.8220 140.3780  1.00267655  6811
ELEKTRO-L 2             
1 41105U 15074A   26127.68530465 -.00000108  00000+0  00000+0 0  9991
2 41105   6.5933  71.0120 0001750 271.0844 115.6074  1.00271080 38104
INSAT-3DR               
1 41752U 16054A   26127.84541547 -.00000070  00000+0  00000+0 0  9997
2 41752   0.1412  87.3285 0010977 193.5264 323.1965  1.00272694 35419
HIMAWARI-9              
1 41836U 16064A   26127.71605762 -.00000267  00000+0  00000+0 0  9995
2 41836   0.0388 124.3885 0001363 314.4069 185.3218  1.00270928 34806
GOES 16                 
1 41866U 16071A   26127.95262258 -.00000083  00000+0  00000+0 0  9997
2 41866   0.2395  85.6415 0001085 275.2078 103.1842  1.00272743 34709
FENGYUN 4A              
1 41882U 16077A   26127.99790012 -.00000348  00000+0  00000+0 0  9993
2 41882   2.2212  80.6917 0008105 143.9395 124.2054  1.00274118 34529
CYGFM05                 
1 41884U 16078A   26127.49589043  .00016541  00000+0  23939-3 0  9992
2 41884  34.9559 169.6623 0007022 135.7459 224.3827 15.54932094522414
CYGFM04                 
1 41885U 16078B   26127.71452312  .00022604  00000+0  27729-3 0  9994
2 41885  34.9318 137.8365 0007228 183.5946 176.4728 15.59296336522670
CYGFM02                 
1 41886U 16078C   26127.72101048  .00025708  00000+0  28685-3 0  9993
2 41886  34.9400 133.3867 0008435 183.7874 176.2789 15.61729065522830
CYGFM01                 
1 41887U 16078D   26127.82244219  .00018003  00000+0  25442-3 0  9991
2 41887  34.9389 168.8777 0006703 132.5082 227.6209 15.55565606522413
CYGFM08                 
1 41888U 16078E   26127.46301931  .00018608  00000+0  24036-3 0  9996
2 41888  34.9422 151.8460 0008617 159.9979 200.1084 15.57949587522612
CYGFM07                 
1 41890U 16078G   26127.74504262  .00021553  00000+0  27725-3 0  9993
2 41890  34.9440 138.3500 0007625 182.4404 177.6284 15.58048979522685
CYGFM03                 
1 41891U 16078H   26127.71595624  .00020752  00000+0  26707-3 0  9992
2 41891  34.9395 140.4941 0006641 171.4541 188.6297 15.58050013522650
FENGYUN 3D              
1 43010U 17072A   26127.97659888  .00000200  00000+0  11626-3 0  9993
2 43010  99.0113 101.6790 0001939 130.7498 229.3846 14.19731392439281
NOAA 20 (JPSS-1)        
1 43013U 17073A   26127.89466372  .00000059  00000+0  48867-4 0  9992
2 43013  98.7755  67.7192 0001879  57.2881 302.8476 14.19550131438759
GOES 17                 
1 43226U 18022A   26127.95565593 -.00000174  00000+0  00000+0 0  9996
2 43226   0.8346  86.2642 0000721 319.4451  74.6357  1.00271552 30025
FENGYUN 2H              
1 43491U 18050A   26127.98914674 -.00000122  00000+0  00000+0 0  9995
2 43491   2.9282  79.5240 0001239 142.3490  79.4245  1.00274403 29037
METOP-C                 
1 43689U 18087A   26127.87667794  .00000081  00000+0  56687-4 0  9990
2 43689  98.6666 188.2117 0000307  63.6686 296.4523 14.21501003389105
GEO-KOMPSAT-2A          
1 43823U 18100A   26127.85616220 -.00000336  00000+0  00000+0 0  9999
2 43823   0.0453  95.9684 0002313 339.5270 226.6900  1.00270506 27222
METEOR-M2 2             
1 44387U 19038A   26127.92320822  .00000039  00000+0  36870-4 0  9992
2 44387  98.9141 114.6188 0002152 110.8344 249.3065 14.24354926355563
ARKTIKA-M 1             
1 47719U 21016A   26126.12455266 -.00000147  00000+0  00000+0 0  9997
2 47719  63.2266  63.7141 7272544 269.7355  14.8736  2.00605981 37948
FENGYUN 3E              
1 49008U 21062A   26127.96501932 -.00000098  00000+0 -25473-4 0  9998
2 49008  98.7506 131.8213 0001441 158.8167 201.3070 14.19900596250872
GOES 18                 
1 51850U 22021A   26127.94620922  .00000104  00000+0  00000+0 0  9991
2 51850   0.0403  83.8844 0000653  19.2059 326.3381  1.00271841  6188
NOAA 21 (JPSS-2)        
1 54234U 22150A   26127.85836670  .00000063  00000+0  50323-4 0  9994
2 54234  98.7043  67.3287 0001194 355.5524   4.5642 14.19558103180825
METEOSAT-12 (MTG-I1)    
1 54743U 22170C   26127.90200904  .00000000  00000+0  00000+0 0  9995
2 54743   0.7361  24.0946 0000972   2.0665 163.9395  1.00272018 12576
TIANMU-1 03             
1 55973U 23039A   26127.93806990  .00012198  00000+0  25055-3 0  9998
2 55973  97.5229 300.3720 0002152 219.1445 140.9648 15.46156269174612
TIANMU-1 04             
1 55974U 23039B   26128.00722297  .00013479  00000+0  27137-3 0  9991
2 55974  97.5164 299.5961 0002838 218.7651 141.3395 15.46715949174634
TIANMU-1 05             
1 55975U 23039C   26127.85229072  .00012211  00000+0  25140-3 0  9992
2 55975  97.5210 299.9125 0001572 252.7760 107.3317 15.46089082174588
TIANMU-1 06             
1 55976U 23039D   26127.94364478  .00012921  00000+0  26096-3 0  9992
2 55976  97.5218 300.6035 0001940 242.9861 117.1190 15.46635376174625
FENGYUN 3G              
1 56232U 23055A   26127.90248880  .00018690  00000+0  30055-3 0  9999
2 56232  49.9917 193.8295 0006103  11.3109 348.7994 15.52969179173741
METEOR-M2 3             
1 57166U 23091A   26127.97865454 -.00000020  00000+0  10175-4 0  9996
2 57166  98.6115 183.7733 0002810 293.7616  66.3268 14.24043312148798
TIANMU-1 07             
1 57399U 23101A   26127.93206822  .00004988  00000+0  17755-3 0  9996
2 57399  97.2620 179.5326 0000458 273.9871  86.1317 15.29404483155498
TIANMU-1 08             
1 57400U 23101B   26127.96478400  .00004642  00000+0  16526-3 0  9997
2 57400  97.2609 179.3397 0002239 244.5937 115.5072 15.29432534155493
TIANMU-1 09             
1 57401U 23101C   26127.94842212  .00005211  00000+0  18510-3 0  9990
2 57401  97.2567 178.7616 0000951 288.8630  71.2507 15.29445982155496
TIANMU-1 10             
1 57402U 23101D   26127.98085586  .00005142  00000+0  18249-3 0  9990
2 57402  97.2646 179.8024 0002306 272.0919  88.0058 15.29481313155496
FENGYUN 3F              
1 57490U 23111A   26127.94982789  .00000053  00000+0  45618-4 0  9992
2 57490  98.6852 198.7048 0001127 115.7861 244.3432 14.19932051143153
ARKTIKA-M 2             
1 58584U 23198A   26126.38721155  .00000160  00000+0  00000+0 0  9997
2 58584  63.2195 159.0205 6891147 267.5568  18.8210  2.00595048 17488
TIANMU-1 11             
1 58645U 23205A   26128.00862924  .00004698  00000+0  18210-3 0  9991
2 58645  97.3475 150.2052 0010289 138.2509 221.9517 15.26581348131395
TIANMU-1 12             
1 58646U 23205B   26127.97787961  .00004609  00000+0  17903-3 0  9994
2 58646  97.3464 149.9393 0008880 123.0213 237.1880 15.26531822131377
TIANMU-1 13             
1 58647U 23205C   26128.00675216  .00004877  00000+0  18891-3 0  9993
2 58647  97.3492 150.2330 0009440 108.1671 252.0597 15.26587261131379
TIANMU-1 14             
1 58648U 23205D   26127.99267440  .00004865  00000+0  18890-3 0  9993
2 58648  97.3427 149.4337 0010047 110.5901 249.6416 15.26502430131370
TIANMU-1 19             
1 58660U 23208A   26127.96702480  .00006739  00000+0  22776-3 0  9995
2 58660  97.4458 244.0922 0006461  99.7951 260.4020 15.30962983131177
TIANMU-1 20             
1 58661U 23208B   26127.97077559  .00006829  00000+0  22230-3 0  9994
2 58661  97.4399 244.6899 0008586 106.5275 253.6911 15.32153156131266
TIANMU-1 21             
1 58662U 23208C   26127.95294753  .00008103  00000+0  24572-3 0  9998
2 58662  97.4458 247.1827 0008555 100.9766 259.2440 15.34357734131394
TIANMU-1 22             
1 58663U 23208D   26127.93588281  .00006502  00000+0  22309-3 0  9996
2 58663  97.4453 244.0297 0005152 117.3425 242.8340 15.30490849131175
TIANMU-1 15             
1 58700U 24004A   26127.98902300  .00004931  00000+0  19100-3 0  9999
2 58700  97.4680 314.1835 0008321 124.5148 235.6877 15.26604373129647
TIANMU-1 16             
1 58701U 24004B   26127.51231150  .00004531  00000+0  17610-3 0  9997
2 58701  97.4624 312.9893 0006795 127.7453 232.4402 15.26548121129572
TIANMU-1 17             
1 58702U 24004C   26127.95651605  .00004605  00000+0  18010-3 0  9994
2 58702  97.4654 313.9031 0006697 130.2604 229.9221 15.26333767129634
TIANMU-1 18             
1 58703U 24004D   26127.93976867  .00004772  00000+0  18507-3 0  9999
2 58703  97.4673 314.1164 0005382 123.5193 236.6561 15.26598275129633
INSAT-3DS               
1 58990U 24033A   26127.56188794 -.00000148  00000+0  00000+0 0  9991
2 58990   0.0315  98.8621 0001826 309.8164 101.0868  1.00272398 46662
METEOR-M2 4             
1 59051U 24039A   26127.94773622  .00000031  00000+0  33687-4 0  9990
2 59051  98.6993  87.7580 0005998 290.4980  69.5553 14.22425377113548
GOES 19                 
1 60133U 24119A   26127.95851594 -.00000241  00000+0  00000+0 0  9990
2 60133   0.0101  43.7752 0000872  58.8928  33.0118  1.00271227  6567
FENGYUN 3H              
1 65815U 25219A   26127.80473385  .00000057  00000+0  47447-4 0  9991
2 65815  98.6752  69.3639 0001267 105.4849 254.6467 14.19913098 31651
